start=new Date('2023-06-06T00:00:00.000Z').valueOf();
sats=[{"ECCENTRICITY":"0.00009390","TLE_LINE1":"1 54187U 22141AG  23156.53847605  .00000498  00000-0  49367-4 0  9994","APOAPSIS":"540.398","PERIOD":"95.438","COUNTRY_CODE":"US","OBJECT_ID":"2022-141AG","NORAD_CAT_ID":"54187","SITE":"AFWTR","OBJECT_NAME":"STARLINK-5240","MEAN_MOTION_DDOT":"0.0000000000000","SEMIMAJOR_AXIS":"6917.884","MEAN_ANOMALY":"286.2542","BSTAR":"0.00004936700000","PERIAPSIS":"539.099","REV_AT_EPOCH":"3366","OBJECT_TYPE":"PAYLOAD","FILE":"3925691","EPHEMERIS_TYPE":"0","REF_FRAME":"TEME","MEAN_ELEMENT_THEORY":"SGP4","TLE_LINE2":"2 54187  53.2161 209.7110 0000939  73.8554 286.2542 15.08838863 33665","DECAY_DATE":null,"TIME_SYSTEM":"UTC","ARG_OF_PERICENTER":"73.8554","MEAN_MOTION":"15.08838863","EPOCH":"2023-06-05T12:55:24.330720","ELEMENT_SET_NO":"999","RA_OF_ASC_NODE":"209.7110","GP_ID":"233260451","INCLINATION":"53.2161","CENTER_NAME":"EARTH","MEAN_MOTION_DOT":"0.00000498","CLASSIFICATION_TYPE":"U","LAUNCH_DATE":"2022-10-28","RCS_SIZE":"LARGE"},{"NORAD_CAT_ID":"54188","OBJECT_ID":"2022-141AH","MEAN_ANOMALY":"270.7377","MEAN_MOTION_DDOT":"0.0000000000000","SEMIMAJOR_AXIS":"6917.862","OBJECT_NAME":"STARLINK-5238","SITE":"AFWTR","REV_AT_EPOCH":"3379","PERIAPSIS":"538.948","BSTAR":"0.00011698000000","MEAN_ELEMENT_THEORY":"SGP4","REF_FRAME":"TEME","EPHEMERIS_TYPE":"0","FILE":"3925691","OBJECT_TYPE":"PAYLOAD","TLE_LINE1":"1 54188U 22141AH  23156.50262956  .00001575  00000-0  11698-3 0  9994","ECCENTRICITY":"0.00011270","APOAPSIS":"540.507","COUNTRY_CODE":"US","PERIOD":"95.437","MEAN_MOTION_DOT":"0.00001575","CENTER_NAME":"EARTH","INCLINATION":"53.2150","RCS_SIZE":"LARGE","LAUNCH_DATE":"2022-10-28","CLASSIFICATION_TYPE":"U","TLE_LINE2":"2 54188  53.2150 200.2077 0001127  89.3744 270.7377 15.08845864 33792","EPOCH":"2023-06-05T12:03:47.193984","MEAN_MOTION":"15.08845864","ARG_OF_PERICENTER":"89.3744","DECAY_DATE":null,"TIME_SYSTEM":"UTC","ELEMENT_SET_NO":"999","GP_ID":"233260202","RA_OF_ASC_NODE":"200.2077"},{"INCLINATION":"53.2159","CENTER_NAME":"EARTH","MEAN_MOTION_DOT":"0.00001196","CLASSIFICATION_TYPE":"U","LAUNCH_DATE":"2022-10-28","RCS_SIZE":"LARGE","TLE_LINE2":"2 54189  53.2159 209.6631 0001009  85.9486 274.1622 15.08843801 33661","TIME_SYSTEM":"UTC","DECAY_DATE":null,"ARG_OF_PERICENTER":"85.9486","MEAN_MOTION":"15.08843801","EPOCH":"2023-06-05T12:51:27.910944","ELEMENT_SET_NO":"999","RA_OF_ASC_NODE":"209.6631","GP_ID":"233258950","OBJECT_ID":"2022-141AJ","NORAD_CAT_ID":"54189","SITE":"AFWTR","OBJECT_NAME":"STARLINK-5182","SEMIMAJOR_AXIS":"6917.869","MEAN_MOTION_DDOT":"0.0000000000000","MEAN_ANOMALY":"274.1622","BSTAR":"0.00009318000000","REV_AT_EPOCH":"3366","PERIAPSIS":"539.036","OBJECT_TYPE":"PAYLOAD","FILE":"3925691","EPHEMERIS_TYPE":"0","REF_FRAME":"TEME","MEAN_ELEMENT_THEORY":"SGP4","TLE_LINE1":"1 54189U 22141AJ  23156.53573971  .00001196  00000-0  93180-4 0  9996","ECCENTRICITY":"0.00010090","APOAPSIS":"540.432","PERIOD":"95.437","COUNTRY_CODE":"US"},{"MEAN_ANOMALY":"273.2714","SEMIMAJOR_AXIS":"6917.864","MEAN_MOTION_DDOT":"0.0000000000000","OBJECT_NAME":"STARLINK-5281","SITE":"AFWTR","NORAD_CAT_ID":"54190","OBJECT_ID":"2022-141AK","MEAN_ELEMENT_THEORY":"SGP4","REF_FRAME":"TEME","EPHEMERIS_TYPE":"0","FILE":"3925691","OBJECT_TYPE":"PAYLOAD","PERIAPSIS":"538.926","REV_AT_EPOCH":"3379","BSTAR":"0.00006458900000","ECCENTRICITY":"0.00011600","TLE_LINE1":"1 54190U 22141AK  23156.49894686  .00000740  00000-0  64589-4 0  9997","COUNTRY_CODE":"US","PERIOD":"95.437","APOAPSIS":"540.531","RCS_SIZE":"LARGE","LAUNCH_DATE":"2022-10-28","CLASSIFICATION_TYPE":"U","MEAN_MOTION_DOT":"0.00000740","INCLINATION":"53.2154","CENTER_NAME":"EARTH","MEAN_MOTION":"15.08845495","EPOCH":"2023-06-05T11:58:29.008704","ARG_OF_PERICENTER":"86.8411","TIME_SYSTEM":"UTC","DECAY_DATE":null,"TLE_LINE2":"2 54190  53.2154 200.1856 0001160  86.8411 273.2714 15.08845495 33796","GP_ID":"233259700","RA_OF_ASC_NODE":"200.1856","ELEMENT_SET_NO":"999"},{"EPHEMERIS_TYPE":"0","OBJECT_TYPE":"PAYLOAD","FILE":"3925691","MEAN_ELEMENT_THEORY":"SGP4","REF_FRAME":"TEME","BSTAR":"0.00011082000000","PERIAPSIS":"538.876","REV_AT_EPOCH":"3379","OBJECT_NAME":"STARLINK-4619","SITE":"AFWTR","MEAN_ANOMALY":"274.4862","SEMIMAJOR_AXIS":"6917.863","MEAN_MOTION_DDOT":"0.0000000000000","OBJECT_ID":"2022-141AL","NORAD_CAT_ID":"54191","COUNTRY_CODE":"US","PERIOD":"95.437","APOAPSIS":"540.581","ECCENTRICITY":"0.00012320","TLE_LINE1":"1 54191U 22141AL  23156.51000161  .00001477  00000-0  11082-3 0  9995","LAUNCH_DATE":"2022-10-28","CLASSIFICATION_TYPE":"U","RCS_SIZE":"LARGE","INCLINATION":"53.2156","CENTER_NAME":"EARTH","MEAN_MOTION_DOT":"0.00001477","RA_OF_ASC_NODE":"200.2540","GP_ID":"233259952","ELEMENT_SET_NO":"999","TIME_SYSTEM":"UTC","DECAY_DATE":null,"EPOCH":"2023-06-05T12:14:24.139104","MEAN_MOTION":"15.08845613","ARG_OF_PERICENTER":"85.6271","TLE_LINE2":"2 54191  53.2156 200.2540 0001232  85.6271 274.4862 15.08845613 33790"},{"REV_AT_EPOCH":"3378","PERIAPSIS":"538.908","BSTAR":"0.00003204100000","MEAN_ELEMENT_THEORY":"SGP4","REF_FRAME":"TEME","EPHEMERIS_TYPE":"0","FILE":"3925691","OBJECT_TYPE":"PAYLOAD","NORAD_CAT_ID":"54192","OBJECT_ID":"2022-141AM","MEAN_ANOMALY":"228.7296","MEAN_MOTION_DDOT":"0.0000000000000","SEMIMAJOR_AXIS":"6917.891","OBJECT_NAME":"STARLINK-5268","SITE":"AFWTR","APOAPSIS":"540.604","COUNTRY_CODE":"US","PERIOD":"95.438","TLE_LINE1":"1 54192U 22141AM  23156.40050049  .00000222  00000-0  32041-4 0  9990","ECCENTRICITY":"0.00012260","MEAN_MOTION_DOT":"0.00000222","INCLINATION":"53.2144","CENTER_NAME":"EARTH","RCS_SIZE":"LARGE","LAUNCH_DATE":"2022-10-28","CLASSIFICATION_TYPE":"U","ELEMENT_SET_NO":"999","GP_ID":"233260702","RA_OF_ASC_NODE":"200.2768","TLE_LINE2":"2 54192  53.2144 200.2768 0001226 131.3802 228.7296 15.08836529 33780","EPOCH":"2023-06-05T09:36:43.242336","MEAN_MOTION":"15.08836529","ARG_OF_PERICENTER":"131.3802","DECAY_DATE":null,"TIME_SYSTEM":"UTC"},{"RA_OF_ASC_NODE":"200.7337","GP_ID":"233259450","ELEMENT_SET_NO":"999","DECAY_DATE":null,"TIME_SYSTEM":"UTC","ARG_OF_PERICENTER":"98.3820","EPOCH":"2023-06-05T08:37:06.568320","MEAN_MOTION":"15.08834708","TLE_LINE2":"2 54193  53.2150 200.7337 0001124  98.3820 261.7299 15.08834708 33770","CLASSIFICATION_TYPE":"U","LAUNCH_DATE":"2022-10-28","RCS_SIZE":"LARGE","INCLINATION":"53.2150","CENTER_NAME":"EARTH","MEAN_MOTION_DOT":"0.00000117","PERIOD":"95.438","COUNTRY_CODE":"US","APOAPSIS":"540.539","ECCENTRICITY":"0.00011240","TLE_LINE1":"1 54193U 22141AN  23156.35910380  .00000117  00000-0  25449-4 0  9995","OBJECT_TYPE":"PAYLOAD","FILE":"3925691","EPHEMERIS_TYPE":"0","REF_FRAME":"TEME","MEAN_ELEMENT_THEORY":"SGP4","BSTAR":"0.00002544900000","PERIAPSIS":"538.984","REV_AT_EPOCH":"3377","SITE":"AFWTR","OBJECT_NAME":"STARLINK-5263","SEMIMAJOR_AXIS":"6917.897","MEAN_MOTION_DDOT":"0.0000000000000","MEAN_ANOMALY":"261.7299","OBJECT_ID":"2022-141AN","NORAD_CAT_ID":"54193"},{"PERIOD":"95.437","COUNTRY_CODE":"US","APOAPSIS":"540.483","ECCENTRICITY":"0.00010780","TLE_LINE1":"1 54194U 22141AP  23156.41796570  .00001124  00000-0  88677-4 0  9997","REF_FRAME":"TEME","MEAN_ELEMENT_THEORY":"SGP4","OBJECT_TYPE":"PAYLOAD","FILE":"3925691","EPHEMERIS_TYPE":"0","PERIAPSIS":"538.992","REV_AT_EPOCH":"3378","BSTAR":"0.00008867700000","SEMIMAJOR_AXIS":"6917.872","MEAN_MOTION_DDOT":"0.0000000000000","MEAN_ANOMALY":"258.9311","SITE":"AFWTR","OBJECT_NAME":"STARLINK-5271","NORAD_CAT_ID":"54194","OBJECT_ID":"2022-141AP","GP_ID":"233259201","RA_OF_ASC_NODE":"200.3915","ELEMENT_SET_NO":"999","ARG_OF_PERICENTER":"101.1802","MEAN_MOTION":"15.08842663","EPOCH":"2023-06-05T10:01:52.236480","TIME_SYSTEM":"UTC","DECAY_DATE":null,"TLE_LINE2":"2 54194  53.2160 200.3915 0001078 101.1802 258.9311 15.08842663 33784","RCS_SIZE":"LARGE","CLASSIFICATION_TYPE":"U","LAUNCH_DATE":"2022-10-28","MEAN_MOTION_DOT":"0.00001124","CENTER_NAME":"EARTH","INCLINATION":"53.2160"},{"FILE":"3925691","OBJECT_TYPE":"PAYLOAD","EPHEMERIS_TYPE":"0","REF_FRAME":"TEME","MEAN_ELEMENT_THEORY":"SGP4","BSTAR":"0.00004456500000","REV_AT_EPOCH":"3378","PERIAPSIS":"538.975","SITE":"AFWTR","OBJECT_NAME":"STARLINK-5258","MEAN_MOTION_DDOT":"0.0000000000000","SEMIMAJOR_AXIS":"6917.880","MEAN_ANOMALY":"265.2341","OBJECT_ID":"2022-141AQ","NORAD_CAT_ID":"54195","PERIOD":"95.438","COUNTRY_CODE":"US","APOAPSIS":"540.515","TLE_LINE1":"1 54195U 22141AQ  23156.42902333  .00000422  00000-0  44565-4 0  9993","ECCENTRICITY":"0.00011130","CLASSIFICATION_TYPE":"U","LAUNCH_DATE":"2022-10-28","RCS_SIZE":"LARGE","CENTER_NAME":"EARTH","INCLINATION":"53.2157","MEAN_MOTION_DOT":"0.00000422","RA_OF_ASC_NODE":"200.4602","GP_ID":"233260452","ELEMENT_SET_NO":"999","DECAY_DATE":null,"TIME_SYSTEM":"UTC","ARG_OF_PERICENTER":"94.8778","EPOCH":"2023-06-05T10:17:47.615712","MEAN_MOTION":"15.08840113","TLE_LINE2":"2 54195  53.2157 200.4602 0001113  94.8778 265.2341 15.08840113 33787"},{"COUNTRY_CODE":"US","PERIOD":"95.438","APOAPSIS":"540.515","ECCENTRICITY":"0.00011070","TLE_LINE1":"1 54196U 22141AR  23156.41059864  .00000259  00000-0  34332-4 0  9994","MEAN_ELEMENT_THEORY":"SGP4","REF_FRAME":"TEME","EPHEMERIS_TYPE":"0","OBJECT_TYPE":"PAYLOAD","FILE":"3925691","PERIAPSIS":"538.984","REV_AT_EPOCH":"3378","BSTAR":"0.00003433200000","MEAN_ANOMALY":"261.8674","SEMIMAJOR_AXIS":"6917.885","MEAN_MOTION_DDOT":"0.0000000000000","OBJECT_NAME":"STARLINK-5237","SITE":"AFWTR","NORAD_CAT_ID":"54196","OBJECT_ID":"2022-141AR","GP_ID":"233260203","RA_OF_ASC_NODE":"200.3450","ELEMENT_SET_NO":"999","MEAN_MOTION":"15.08838594","EPOCH":"2023-06-05T09:51:15.722496","ARG_OF_PERICENTER":"98.2444","DECAY_DATE":null,"TIME_SYSTEM":"UTC","TLE_LINE2":"2 54196  53.2157 200.3450 0001107  98.2444 261.8674 15.08838594 33780","RCS_SIZE":"LARGE","LAUNCH_DATE":"2022-10-28","CLASSIFICATION_TYPE":"U","MEAN_MOTION_DOT":"0.00000259","CENTER_NAME":"EARTH","INCLINATION":"53.2157"}];
